[Satellite]
VERSION=1.1
NAME=INTERCOSMOS 24
NICKNAME=INTERCOSMOS 24
TLE1=1 20261U 89080A   17186.10532344  .00000092  00000-0  18607-4 0  9998
TLE2=2 20261  82.5924 358.3403 1204931  55.4589 315.4379 12.55886527268620
